[{"OBJECT_NAME":"JILIN-1 GAOFEN 03D50","OBJECT_ID":"2022-167J","EPOCH":"2026-03-09T22:35:59.947584","MEAN_MOTION":15.32279726,"ECCENTRICITY":0.00065764,"INCLINATION":97.6731,"RA_OF_ASC_NODE":232.9458,"ARG_OF_PERICENTER":101.1473,"MEAN_ANOMALY":259.0507,"EPHEMERIS_TYPE":0,"CLASSIFICATION_TYPE":"U","NORAD_CAT_ID":54690,"ELEMENT_SET_NO":999,"REV_AT_EPOCH":18014,"BSTAR":0.00049467973,"MEAN_MOTION_DOT":0.00015359,"MEAN_MOTION_DDOT":0},{"OBJECT_NAME":"STARLINK-35554","OBJECT_ID":"2025-245F","EPOCH":"2026-03-09T21:01:51.157056","MEAN_MOTION":15.30232118,"ECCENTRICITY":6.671e-5,"INCLINATION":53.1566,"RA_OF_ASC_NODE":283.1355,"ARG_OF_PERICENTER":55.4083,"MEAN_ANOMALY":304.6981,"EPHEMERIS_TYPE":0,"CLASSIFICATION_TYPE":"U","NORAD_CAT_ID":66239,"ELEMENT_SET_NO":999,"REV_AT_EPOCH":2112,"BSTAR":0.00088149449,"MEAN_MOTION_DOT":0.00025865,"MEAN_MOTION_DDOT":0}]
